KUIPER-00027            
1 63740U 25088S   26198.58783501  .00000397  00000+0  81115-4 0  9994
2 63740  51.9006 241.1894 0000380  78.8402 281.2603 14.79931074 66854
KUIPER-00028            
1 63741U 25088T   26198.48923098  .00000164  00000+0  50507-4 0  9994
2 63741  51.8991 239.0765 0000387  66.4890 293.6113 14.79932826 67288
KUIPER-00029            
1 63742U 25088U   26198.12761680  .00000919  00000+0  14952-3 0  9994
2 63742  51.9001 239.3603 0000305 312.6960  47.3977 14.79937008 66772
KUIPER-00030            
1 63743U 25088V   26197.55870358 -.00000822  00000+0 -78793-4 0  9993
2 63743  51.9014 260.7021 0000359  92.4575 267.6428 14.79929477 66716
KUIPER-00031            
1 63744U 25088W   26198.14216852  .00001655  00000+0  26561-3 0  9991
2 63744  51.9014 243.0768 0001754 224.5831 135.4989 14.76565358 66728
KUIPER-00032            
1 63745U 25088X   26198.00144882  .00008671  00000+0  21665-3 0  9995
2 63745  51.8667 117.1063 0002940 209.9362 150.1458 15.40964678 69464
KUIPER-00033            
1 63746U 25088Y   26198.25158127  .00000028  00000+0  32657-4 0  9992
2 63746  51.9008 272.6601 0000433 116.9224 243.1783 14.79923717 66808
KUIPER-00034            
1 63747U 25088Z   26198.49464404  .00000132  00000+0  46291-4 0  9992
2 63747  51.9007 234.1182 0000566  60.1605 299.9413 14.79926817 67045
KUIPER-00035            
1 63748U 25088AA  26198.46766904 -.00000520  00000+0 -39230-4 0  9998
2 63748  51.9001 259.2126 0000367  91.0176 269.0828 14.79925904 66741
KUIPER-00037            
1 63749U 25088AB  26198.46058441  .00000390  00000+0  80115-4 0  9990
2 63749  51.8998 258.0997 0000352  89.7758 270.3245 14.79931656 67541
KUIPER-00038            
1 63750U 25088AC  26198.51761575  .00000290  00000+0  67059-4 0  9998
2 63750  51.9012 244.0148 0000381  75.4532 284.6472 14.79926481 66749
KUIPER-00039            
1 64500U 25134A   26198.49017248  .00000357  00000+0  75873-4 0  9999
2 64500  51.9009  19.1335 0000734 111.6912 248.4129 14.79934092 59291
KUIPER-00040            
1 64501U 25134B   26198.91834665  .00000657  00000+0  11515-3 0  9992
2 64501  51.8997  27.3164 0000651 120.6667 239.4359 14.79930723 59217
KUIPER-00041            
1 64502U 25134C   26198.94939381  .00000388  00000+0  79902-4 0  9993
2 64502  51.9002  29.5667 0000718 102.2101 257.8942 14.79929884 59185
KUIPER-00042            
1 64503U 25134D   26198.92102569 -.00000053  00000+0  22010-4 0  9990
2 64503  51.8988  24.6684 0000873 118.9658 241.1392 14.79928708 59253
KUIPER-00043            
1 64504U 25134E   26198.86158579  .00001585  00000+0  23685-3 0  9994
2 64504  51.9033  17.4314 0000710 119.2104 240.8930 14.79929515 59358
