{"fetched_at":"2026-07-18T06:27:44.179Z","source":"https://celestrak.org/NORAD/elements/gp.php?GROUP=kuiper&FORMAT=JSON","constellation":"kuiper","records":[{"OBJECT_NAME":"KUIPER-00027","OBJECT_ID":"2025-088S","EPOCH":"2026-07-17T14:06:28.944864","CLASSIFICATION_TYPE":"U","MEAN_MOTION":14.79931074,"ECCENTRICITY":0.000038,"INCLINATION":51.9006,"RA_OF_ASC_NODE":241.1894,"ARG_OF_PERICENTER":78.8402,"MEAN_ANOMALY":281.2603,"EPHEMERIS_TYPE":0,"NORAD_CAT_ID":63740,"ELEMENT_SET_NO":999,"REV_AT_EPOCH":6685,"BSTAR":0.000081115,"MEAN_MOTION_DOT":0.00000397,"MEAN_MOTION_DDOT":0},{"OBJECT_NAME":"KUIPER-00028","OBJECT_ID":"2025-088T","EPOCH":"2026-07-17T11:44:29.556672","CLASSIFICATION_TYPE":"U","MEAN_MOTION":14.79932826,"ECCENTRICITY":0.0000387,"INCLINATION":51.8991,"RA_OF_ASC_NODE":239.0765,"ARG_OF_PERICENTER":66.489,"MEAN_ANOMALY":293.6113,"EPHEMERIS_TYPE":0,"NORAD_CAT_ID":63741,"ELEMENT_SET_NO":999,"REV_AT_EPOCH":6728,"BSTAR":0.000050507,"MEAN_MOTION_DOT":0.00000164,"MEAN_MOTION_DDOT":0},{"OBJECT_NAME":"KUIPER-00029","OBJECT_ID":"2025-088U","EPOCH":"2026-07-17T03:03:46.091520","CLASSIFICATION_TYPE":"U","MEAN_MOTION":14.79937008,"ECCENTRICITY":0.00003051,"INCLINATION":51.9001,"RA_OF_ASC_NODE":239.3603,"ARG_OF_PERICENTER":312.696,"MEAN_ANOMALY":47.3977,"EPHEMERIS_TYPE":0,"NORAD_CAT_ID":63742,"ELEMENT_SET_NO":999,"REV_AT_EPOCH":6677,"BSTAR":0.00014951955,"MEAN_MOTION_DOT":0.00000919,"MEAN_MOTION_DDOT":0},{"OBJECT_NAME":"KUIPER-00030","OBJECT_ID":"2025-088V","EPOCH":"2026-07-16T13:24:31.989312","CLASSIFICATION_TYPE":"U","MEAN_MOTION":14.79929477,"ECCENTRICITY":0.0000359,"INCLINATION":51.9014,"RA_OF_ASC_NODE":260.7021,"ARG_OF_PERICENTER":92.4575,"MEAN_ANOMALY":267.6428,"EPHEMERIS_TYPE":0,"NORAD_CAT_ID":63743,"ELEMENT_SET_NO":999,"REV_AT_EPOCH":6671,"BSTAR":-0.000078793,"MEAN_MOTION_DOT":-0.00000822,"MEAN_MOTION_DDOT":0},{"OBJECT_NAME":"KUIPER-00031","OBJECT_ID":"2025-088W","EPOCH":"2026-07-17T03:24:43.360128","CLASSIFICATION_TYPE":"U","MEAN_MOTION":14.76565358,"ECCENTRICITY":0.00017547,"INCLINATION":51.9014,"RA_OF_ASC_NODE":243.0768,"ARG_OF_PERICENTER":224.5831,"MEAN_ANOMALY":135.4989,"EPHEMERIS_TYPE":0,"NORAD_CAT_ID":63744,"ELEMENT_SET_NO":999,"REV_AT_EPOCH":6672,"BSTAR":0.00026560693,"MEAN_MOTION_DOT":0.00001655,"MEAN_MOTION_DDOT":0},{"OBJECT_NAME":"KUIPER-00032","OBJECT_ID":"2025-088X","EPOCH":"2026-07-17T00:02:05.178048","CLASSIFICATION_TYPE":"U","MEAN_MOTION":15.40964678,"ECCENTRICITY":0.000294,"INCLINATION":51.8667,"RA_OF_ASC_NODE":117.1063,"ARG_OF_PERICENTER":209.9362,"MEAN_ANOMALY":150.1458,"EPHEMERIS_TYPE":0,"NORAD_CAT_ID":63745,"ELEMENT_SET_NO":999,"REV_AT_EPOCH":6946,"BSTAR":0.00021665,"MEAN_MOTION_DOT":0.00008671,"MEAN_MOTION_DDOT":0},{"OBJECT_NAME":"KUIPER-00033","OBJECT_ID":"2025-088Y","EPOCH":"2026-07-17T06:02:16.621728","CLASSIFICATION_TYPE":"U","MEAN_MOTION":14.79923717,"ECCENTRICITY":0.00004337,"INCLINATION":51.9008,"RA_OF_ASC_NODE":272.6601,"ARG_OF_PERICENTER":116.9224,"MEAN_ANOMALY":243.1783,"EPHEMERIS_TYPE":0,"NORAD_CAT_ID":63746,"ELEMENT_SET_NO":999,"REV_AT_EPOCH":6680,"BSTAR":0.000032657273,"MEAN_MOTION_DOT":2.8e-7,"MEAN_MOTION_DDOT":0},{"OBJECT_NAME":"KUIPER-00034","OBJECT_ID":"2025-088Z","EPOCH":"2026-07-17T11:52:17.245056","CLASSIFICATION_TYPE":"U","MEAN_MOTION":14.79926817,"ECCENTRICITY":0.0000566,"INCLINATION":51.9007,"RA_OF_ASC_NODE":234.1182,"ARG_OF_PERICENTER":60.1605,"MEAN_ANOMALY":299.9413,"EPHEMERIS_TYPE":0,"NORAD_CAT_ID":63747,"ELEMENT_SET_NO":999,"REV_AT_EPOCH":6704,"BSTAR":0.000046291,"MEAN_MOTION_DOT":0.00000132,"MEAN_MOTION_DDOT":0},{"OBJECT_NAME":"KUIPER-00035","OBJECT_ID":"2025-088AA","EPOCH":"2026-07-17T11:13:26.605056","CLASSIFICATION_TYPE":"U","MEAN_MOTION":14.79925904,"ECCENTRICITY":0.0000367,"INCLINATION":51.9001,"RA_OF_ASC_NODE":259.2126,"ARG_OF_PERICENTER":91.0176,"MEAN_ANOMALY":269.0828,"EPHEMERIS_TYPE":0,"NORAD_CAT_ID":63748,"ELEMENT_SET_NO":999,"REV_AT_EPOCH":6674,"BSTAR":-0.00003923,"MEAN_MOTION_DOT":-0.0000052,"MEAN_MOTION_DDOT":0},{"OBJECT_NAME":"KUIPER-00037","OBJECT_ID":"2025-088AB","EPOCH":"2026-07-17T11:03:14.493024","CLASSIFICATION_TYPE":"U","MEAN_MOTION":14.79931656,"ECCENTRICITY":0.0000352,"INCLINATION":51.8998,"RA_OF_ASC_NODE":258.0997,"ARG_OF_PERICENTER":89.7758,"MEAN_ANOMALY":270.3245,"EPHEMERIS_TYPE":0,"NORAD_CAT_ID":63749,"ELEMENT_SET_NO":999,"REV_AT_EPOCH":6754,"BSTAR":0.000080115,"MEAN_MOTION_DOT":0.0000039,"MEAN_MOTION_DDOT":0},{"OBJECT_NAME":"KUIPER-00038","OBJECT_ID":"2025-088AC","EPOCH":"2026-07-17T12:25:22.000800","CLASSIFICATION_TYPE":"U","MEAN_MOTION":14.79926481,"ECCENTRICITY":0.0000381,"INCLINATION":51.9012,"RA_OF_ASC_NODE":244.0148,"ARG_OF_PERICENTER":75.4532,"MEAN_ANOMALY":284.6472,"EPHEMERIS_TYPE":0,"NORAD_CAT_ID":63750,"ELEMENT_SET_NO":999,"REV_AT_EPOCH":6674,"BSTAR":0.000067059,"MEAN_MOTION_DOT":0.0000029,"MEAN_MOTION_DDOT":0},{"OBJECT_NAME":"KUIPER-00039","OBJECT_ID":"2025-134A","EPOCH":"2026-07-17T11:45:50.902272","CLASSIFICATION_TYPE":"U","MEAN_MOTION":14.79934092,"ECCENTRICITY":0.0000734,"INCLINATION":51.9009,"RA_OF_ASC_NODE":19.1335,"ARG_OF_PERICENTER":111.6912,"MEAN_ANOMALY":248.4129,"EPHEMERIS_TYPE":0,"NORAD_CAT_ID":64500,"ELEMENT_SET_NO":999,"REV_AT_EPOCH":5929,"BSTAR":0.000075873,"MEAN_MOTION_DOT":0.00000357,"MEAN_MOTION_DDOT":0},{"OBJECT_NAME":"KUIPER-00040","OBJECT_ID":"2025-134B","EPOCH":"2026-07-17T22:02:25.150560","CLASSIFICATION_TYPE":"U","MEAN_MOTION":14.79930723,"ECCENTRICITY":0.00006511,"INCLINATION":51.8997,"RA_OF_ASC_NODE":27.3164,"ARG_OF_PERICENTER":120.6667,"MEAN_ANOMALY":239.4359,"EPHEMERIS_TYPE":0,"NORAD_CAT_ID":64501,"ELEMENT_SET_NO":999,"REV_AT_EPOCH":5921,"BSTAR":0.00011515245,"MEAN_MOTION_DOT":0.00000657,"MEAN_MOTION_DDOT":0},{"OBJECT_NAME":"KUIPER-00041","OBJECT_ID":"2025-134C","EPOCH":"2026-07-17T22:47:07.625184","CLASSIFICATION_TYPE":"U","MEAN_MOTION":14.79929884,"ECCENTRICITY":0.00007183,"INCLINATION":51.9002,"RA_OF_ASC_NODE":29.5667,"ARG_OF_PERICENTER":102.2101,"MEAN_ANOMALY":257.8942,"EPHEMERIS_TYPE":0,"NORAD_CAT_ID":64502,"ELEMENT_SET_NO":999,"REV_AT_EPOCH":5918,"BSTAR":0.000079902356,"MEAN_MOTION_DOT":0.00000388,"MEAN_MOTION_DDOT":0},{"OBJECT_NAME":"KUIPER-00042","OBJECT_ID":"2025-134D","EPOCH":"2026-07-17T22:06:16.619616","CLASSIFICATION_TYPE":"U","MEAN_MOTION":14.79928708,"ECCENTRICITY":0.0000873,"INCLINATION":51.8988,"RA_OF_ASC_NODE":24.6684,"ARG_OF_PERICENTER":118.9658,"MEAN_ANOMALY":241.1392,"EPHEMERIS_TYPE":0,"NORAD_CAT_ID":64503,"ELEMENT_SET_NO":999,"REV_AT_EPOCH":5925,"BSTAR":0.000022010174,"MEAN_MOTION_DOT":-5.3e-7,"MEAN_MOTION_DDOT":0},{"OBJECT_NAME":"KUIPER-00043","OBJECT_ID":"2025-134E","EPOCH":"2026-07-17T20:40:41.012256","CLASSIFICATION_TYPE":"U","MEAN_MOTION":14.79929515,"ECCENTRICITY":0.00007109,"INCLINATION":51.9033,"RA_OF_ASC_NODE":17.4314,"ARG_OF_PERICENTER":119.2104,"MEAN_ANOMALY":240.893,"EPHEMERIS_TYPE":0,"NORAD_CAT_ID":64504,"ELEMENT_SET_NO":999,"REV_AT_EPOCH":5935,"BSTAR":0.00023684859,"MEAN_MOTION_DOT":0.00001585,"MEAN_MOTION_DDOT":0}]}
